start=new Date('2022-04-02T00:00:00.000Z').valueOf();
sats=[{"TLE_LINE2":"2 52122  53.2169  76.1546 0001047  78.9071 213.0422 15.73194872  2950","TLE_LINE1":"1 52122U 22029AL  22091.91667824 -.00030351  00000-0 -21267-3 0  9999","LAUNCH_DATE":"2022-03-19","TIME_SYSTEM":"UTC","CENTER_NAME":"EARTH","MEAN_MOTION":"15.73194872","CLASSIFICATION_TYPE":"U","MEAN_ANOMALY":"213.0422","SEMIMAJOR_AXIS":"6727.910","COUNTRY_CODE":"US","BSTAR":"-0.00021267000000","MEAN_ELEMENT_THEORY":"SGP4","INCLINATION":"53.2169","PERIOD":"91.533","FILE":"3383778","OBJECT_TYPE":"PAYLOAD","NORAD_CAT_ID":"52122","OBJECT_ID":"2022-029AL","ELEMENT_SET_NO":"999","RCS_SIZE":"LARGE","DECAY_DATE":null,"REF_FRAME":"TEME","APOAPSIS":"350.479","MEAN_MOTION_DDOT":"0.0000000000000","SITE":"AFETR","GP_ID":"200267169","OBJECT_NAME":"STARLINK-3726","MEAN_MOTION_DOT":"-0.00030351","PERIAPSIS":"349.070","REV_AT_EPOCH":"295","RA_OF_ASC_NODE":"76.1546","EPOCH":"2022-04-01T22:00:00.999936","ARG_OF_PERICENTER":"78.9071","ECCENTRICITY":"0.00010470","EPHEMERIS_TYPE":"0"},{"TLE_LINE2":"2 52123  53.2167  76.1482 0000865  72.2547 222.5401 15.73129036  2952","TLE_LINE1":"1 52123U 22029AM  22091.91667824  .00090934  00000-0  64730-3 0  9993","LAUNCH_DATE":"2022-03-19","TIME_SYSTEM":"UTC","MEAN_MOTION":"15.73129036","CENTER_NAME":"EARTH","CLASSIFICATION_TYPE":"U","MEAN_ANOMALY":"222.5401","SEMIMAJOR_AXIS":"6728.098","BSTAR":"0.00064730000000","COUNTRY_CODE":"US","MEAN_ELEMENT_THEORY":"SGP4","INCLINATION":"53.2167","PERIOD":"91.537","FILE":"3383778","OBJECT_TYPE":"PAYLOAD","NORAD_CAT_ID":"52123","OBJECT_ID":"2022-029AM","ELEMENT_SET_NO":"999","RCS_SIZE":"LARGE","DECAY_DATE":null,"REF_FRAME":"TEME","APOAPSIS":"350.544","MEAN_MOTION_DDOT":"0.0000000000000","SITE":"AFETR","GP_ID":"200266746","OBJECT_NAME":"STARLINK-3725","PERIAPSIS":"349.381","MEAN_MOTION_DOT":"0.00090934","REV_AT_EPOCH":"295","RA_OF_ASC_NODE":"76.1482","EPOCH":"2022-04-01T22:00:00.999936","ARG_OF_PERICENTER":"72.2547","EPHEMERIS_TYPE":"0","ECCENTRICITY":"0.00008650"},{"RA_OF_ASC_NODE":"76.1522","EPOCH":"2022-04-01T22:00:00.999936","REV_AT_EPOCH":"290","ECCENTRICITY":"0.00012420","EPHEMERIS_TYPE":"0","ARG_OF_PERICENTER":"81.5919","PERIAPSIS":"348.882","MEAN_MOTION_DOT":"-0.00050230","GP_ID":"200267265","OBJECT_NAME":"STARLINK-3684","MEAN_MOTION_DDOT":"0.0000000000000","SITE":"AFETR","APOAPSIS":"350.554","REF_FRAME":"TEME","RCS_SIZE":"LARGE","ELEMENT_SET_NO":"999","DECAY_DATE":null,"NORAD_CAT_ID":"52124","OBJECT_ID":"2022-029AN","PERIOD":"91.532","OBJECT_TYPE":"PAYLOAD","FILE":"3383778","INCLINATION":"53.2169","COUNTRY_CODE":"US","BSTAR":"-0.00035539000000","MEAN_ELEMENT_THEORY":"SGP4","SEMIMAJOR_AXIS":"6727.853","CLASSIFICATION_TYPE":"U","MEAN_ANOMALY":"211.4959","LAUNCH_DATE":"2022-03-19","TLE_LINE1":"1 52124U 22029AN  22091.91667824 -.00050230  00000-0 -35539-3 0  9996","MEAN_MOTION":"15.73214814","CENTER_NAME":"EARTH","TIME_SYSTEM":"UTC","TLE_LINE2":"2 52124  53.2169  76.1522 0001242  81.5919 211.4959 15.73214814  2905"},{"MEAN_MOTION":"15.73199143","CENTER_NAME":"EARTH","TIME_SYSTEM":"UTC","LAUNCH_DATE":"2022-03-19","TLE_LINE1":"1 52125U 22029AP  22091.91667824 -.00030187  00000-0 -21145-3 0  9994","TLE_LINE2":"2 52125  53.2166  76.1468 0001232  80.5242 214.8647 15.73199143  2952","SEMIMAJOR_AXIS":"6727.898","MEAN_ANOMALY":"214.8647","CLASSIFICATION_TYPE":"U","INCLINATION":"53.2166","MEAN_ELEMENT_THEORY":"SGP4","BSTAR":"-0.00021145000000","COUNTRY_CODE":"US","NORAD_CAT_ID":"52125","OBJECT_ID":"2022-029AP","OBJECT_TYPE":"PAYLOAD","FILE":"3383778","PERIOD":"91.533","DECAY_DATE":null,"RCS_SIZE":"LARGE","ELEMENT_SET_NO":"999","APOAPSIS":"350.591","REF_FRAME":"TEME","OBJECT_NAME":"STARLINK-3727","GP_ID":"200266965","SITE":"AFETR","MEAN_MOTION_DDOT":"0.0000000000000","ECCENTRICITY":"0.00012320","EPHEMERIS_TYPE":"0","ARG_OF_PERICENTER":"80.5242","EPOCH":"2022-04-01T22:00:00.999936","RA_OF_ASC_NODE":"76.1468","REV_AT_EPOCH":"295","MEAN_MOTION_DOT":"-0.00030187","PERIAPSIS":"348.934"},{"APOAPSIS":"350.449","REF_FRAME":"TEME","ELEMENT_SET_NO":"999","RCS_SIZE":"LARGE","DECAY_DATE":null,"REV_AT_EPOCH":"291","RA_OF_ASC_NODE":"76.1497","EPOCH":"2022-04-01T22:00:00.999936","ARG_OF_PERICENTER":"80.9229","EPHEMERIS_TYPE":"0","ECCENTRICITY":"0.00009990","PERIAPSIS":"349.105","MEAN_MOTION_DOT":"-0.00022261","GP_ID":"200266849","OBJECT_NAME":"STARLINK-3732","MEAN_MOTION_DDOT":"0.0000000000000","SITE":"AFETR","SEMIMAJOR_AXIS":"6727.912","CLASSIFICATION_TYPE":"U","MEAN_ANOMALY":"213.3101","TLE_LINE1":"1 52126U 22029AQ  22091.91667824 -.00022261  00000-0 -15466-3 0  9998","LAUNCH_DATE":"2022-03-19","TIME_SYSTEM":"UTC","MEAN_MOTION":"15.73194113","CENTER_NAME":"EARTH","TLE_LINE2":"2 52126  53.2169  76.1497 0000999  80.9229 213.3101 15.73194113  2913","OBJECT_ID":"2022-029AQ","NORAD_CAT_ID":"52126","PERIOD":"91.534","FILE":"3383778","OBJECT_TYPE":"PAYLOAD","INCLINATION":"53.2169","BSTAR":"-0.00015466000000","COUNTRY_CODE":"US","MEAN_ELEMENT_THEORY":"SGP4"},{"PERIAPSIS":"349.068","MEAN_MOTION_DOT":"-0.00034281","REV_AT_EPOCH":"291","RA_OF_ASC_NODE":"76.1441","EPOCH":"2022-04-01T22:00:00.999936","ARG_OF_PERICENTER":"77.2844","EPHEMERIS_TYPE":"0","ECCENTRICITY":"0.00010260","MEAN_MOTION_DDOT":"0.0000000000000","SITE":"AFETR","OBJECT_NAME":"STARLINK-3715","GP_ID":"200267068","REF_FRAME":"TEME","APOAPSIS":"350.448","ELEMENT_SET_NO":"999","RCS_SIZE":"LARGE","DECAY_DATE":null,"PERIOD":"91.533","FILE":"3383778","OBJECT_TYPE":"PAYLOAD","NORAD_CAT_ID":"52127","OBJECT_ID":"2022-029AR","COUNTRY_CODE":"US","BSTAR":"-0.00024083000000","MEAN_ELEMENT_THEORY":"SGP4","INCLINATION":"53.2168","CLASSIFICATION_TYPE":"U","MEAN_ANOMALY":"219.2571","SEMIMAJOR_AXIS":"6727.893","TLE_LINE2":"2 52127  53.2168  76.1441 0001026  77.2844 219.2571 15.73200838  2914","TLE_LINE1":"1 52127U 22029AR  22091.91667824 -.00034281  00000-0 -24083-3 0  9999","LAUNCH_DATE":"2022-03-19","TIME_SYSTEM":"UTC","MEAN_MOTION":"15.73200838","CENTER_NAME":"EARTH"},{"REF_FRAME":"TEME","APOAPSIS":"299.969","RCS_SIZE":"LARGE","ELEMENT_SET_NO":"999","DECAY_DATE":null,"MEAN_MOTION_DOT":"0.00302738","PERIAPSIS":"290.114","EPOCH":"2022-04-01T22:00:00.999936","RA_OF_ASC_NODE":"75.0478","REV_AT_EPOCH":"285","ECCENTRICITY":"0.00073840","EPHEMERIS_TYPE":"0","ARG_OF_PERICENTER":"328.8132","MEAN_MOTION_DDOT":"0.0000459020000","SITE":"AFETR","OBJECT_NAME":"STARLINK-3719","GP_ID":"200267356","CLASSIFICATION_TYPE":"U","MEAN_ANOMALY":"141.6322","SEMIMAJOR_AXIS":"6673.176","TLE_LINE2":"2 52128  53.2150  75.0478 0007384 328.8132 141.6322 15.92589585  2857","LAUNCH_DATE":"2022-03-19","TLE_LINE1":"1 52128U 22029AS  22091.91667824  .00302738  45902-4  87126-3 0  9994","CENTER_NAME":"EARTH","MEAN_MOTION":"15.92589585","TIME_SYSTEM":"UTC","PERIOD":"90.419","OBJECT_TYPE":"PAYLOAD","FILE":"3383778","OBJECT_ID":"2022-029AS","NORAD_CAT_ID":"52128","BSTAR":"0.00087126000000","COUNTRY_CODE":"US","MEAN_ELEMENT_THEORY":"SGP4","INCLINATION":"53.2150"},{"PERIAPSIS":"348.923","MEAN_MOTION_DOT":"-0.00009713","RA_OF_ASC_NODE":"76.1421","EPOCH":"2022-04-01T22:00:00.999936","REV_AT_EPOCH":"295","EPHEMERIS_TYPE":"0","ECCENTRICITY":"0.00012480","ARG_OF_PERICENTER":"76.8045","MEAN_MOTION_DDOT":"0.0000000000000","SITE":"AFETR","OBJECT_NAME":"STARLINK-3661","GP_ID":"200266644","REF_FRAME":"TEME","APOAPSIS":"350.603","RCS_SIZE":"LARGE","ELEMENT_SET_NO":"999","DECAY_DATE":null,"PERIOD":"91.533","OBJECT_TYPE":"PAYLOAD","FILE":"3383778","OBJECT_ID":"2022-029AT","NORAD_CAT_ID":"52129","COUNTRY_CODE":"US","BSTAR":"-0.00006487100000","MEAN_ELEMENT_THEORY":"SGP4","INCLINATION":"53.2167","CLASSIFICATION_TYPE":"U","MEAN_ANOMALY":"220.8613","SEMIMAJOR_AXIS":"6727.898","TLE_LINE2":"2 52129  53.2167  76.1421 0001248  76.8045 220.8613 15.73199035  2952","LAUNCH_DATE":"2022-03-19","TLE_LINE1":"1 52129U 22029AT  22091.91667824 -.00009713  00000-0 -64871-4 0  9993","CENTER_NAME":"EARTH","MEAN_MOTION":"15.73199035","TIME_SYSTEM":"UTC"},{"BSTAR":"0.00089038000000","COUNTRY_CODE":"US","MEAN_ELEMENT_THEORY":"SGP4","INCLINATION":"53.2153","PERIOD":"90.494","FILE":"3383778","OBJECT_TYPE":"PAYLOAD","NORAD_CAT_ID":"52130","OBJECT_ID":"2022-029AU","TLE_LINE2":"2 52130  53.2153  75.1443 0008139 331.6587  92.3352 15.91272606  2915","TLE_LINE1":"1 52130U 22029AU  22091.91667824  .00288926  42204-4  89038-3 0  9995","LAUNCH_DATE":"2022-03-19","TIME_SYSTEM":"UTC","CENTER_NAME":"EARTH","MEAN_MOTION":"15.91272606","CLASSIFICATION_TYPE":"U","MEAN_ANOMALY":"92.3352","SEMIMAJOR_AXIS":"6676.858","MEAN_MOTION_DDOT":"0.0000422040000","SITE":"AFETR","OBJECT_NAME":"STARLINK-3710","GP_ID":"200267170","PERIAPSIS":"293.288","MEAN_MOTION_DOT":"0.00288926","REV_AT_EPOCH":"291","RA_OF_ASC_NODE":"75.1443","EPOCH":"2022-04-01T22:00:00.999936","ARG_OF_PERICENTER":"331.6587","ECCENTRICITY":"0.00081390","EPHEMERIS_TYPE":"0","ELEMENT_SET_NO":"999","RCS_SIZE":"LARGE","DECAY_DATE":null,"REF_FRAME":"TEME","APOAPSIS":"304.157"},{"PERIAPSIS":"348.972","MEAN_MOTION_DOT":"-0.00028396","ARG_OF_PERICENTER":"79.9911","EPHEMERIS_TYPE":"0","ECCENTRICITY":"0.00011880","REV_AT_EPOCH":"290","RA_OF_ASC_NODE":"76.1406","EPOCH":"2022-04-01T22:00:00.999936","SITE":"AFETR","MEAN_MOTION_DDOT":"0.0000000000000","GP_ID":"200266747","OBJECT_NAME":"STARLINK-3711","REF_FRAME":"TEME","APOAPSIS":"350.570","DECAY_DATE":null,"ELEMENT_SET_NO":"999","RCS_SIZE":"LARGE","FILE":"3383778","OBJECT_TYPE":"PAYLOAD","PERIOD":"91.533","NORAD_CAT_ID":"52131","OBJECT_ID":"2022-029AV","MEAN_ELEMENT_THEORY":"SGP4","COUNTRY_CODE":"US","BSTAR":"-0.00019862000000","INCLINATION":"53.2165","MEAN_ANOMALY":"218.2679","CLASSIFICATION_TYPE":"U","SEMIMAJOR_AXIS":"6727.906","TLE_LINE2":"2 52131  53.2165  76.1406 0001188  79.9911 218.2679 15.73196241  2909","TIME_SYSTEM":"UTC","CENTER_NAME":"EARTH","MEAN_MOTION":"15.73196241","TLE_LINE1":"1 52131U 22029AV  22091.91667824 -.00028396  00000-0 -19862-3 0  9993","LAUNCH_DATE":"2022-03-19"}];
